[{"OBJECT_NAME":"STARLINK-30088","OBJECT_ID":"2023-107F","EPOCH":"2026-03-09T02:15:08.029152","MEAN_MOTION":15.26769614,"ECCENTRICITY":0.00019413,"INCLINATION":43.0038,"RA_OF_ASC_NODE":339.6676,"ARG_OF_PERICENTER":259.6478,"MEAN_ANOMALY":100.4155,"EPHEMERIS_TYPE":0,"CLASSIFICATION_TYPE":"U","NORAD_CAT_ID":57462,"ELEMENT_SET_NO":999,"REV_AT_EPOCH":14505,"BSTAR":0.00026190877,"MEAN_MOTION_DOT":6.778e-5,"MEAN_MOTION_DDOT":0},{"OBJECT_NAME":"FLOCK 4G-12","OBJECT_ID":"2025-009S","EPOCH":"2026-03-09T17:16:21.445824","MEAN_MOTION":15.27059194,"ECCENTRICITY":0.00028933,"INCLINATION":97.4059,"RA_OF_ASC_NODE":151.1894,"ARG_OF_PERICENTER":310.1775,"MEAN_ANOMALY":49.9211,"EPHEMERIS_TYPE":0,"CLASSIFICATION_TYPE":"U","NORAD_CAT_ID":62625,"ELEMENT_SET_NO":999,"REV_AT_EPOCH":6371,"BSTAR":0.00043519262,"MEAN_MOTION_DOT":0.00011487,"MEAN_MOTION_DDOT":0}]
